SatCatId,ObjectName,LaunchYear,OrbitalPeriod,LaunchMass,StatusCode,Inclination,Status,UcsData,OrbitClassEstimated,LaunchSiteCountry,Owner,UseType,Purpose,LaunchVehicleClass,TLE1,TLE2,MeanMotion,Eccentricity,OrbitClass
53014,STARLINK-4183,2022,95.44,260.0,+,53.22,Active,1,LEO,USA,USA,Commercial,Communications,Falcon,1 53014U 22076AE  25259.96100338 -.00000583  00000+0 -18524-4 0  9994,2 53014  53.2153 144.0213 0001039  81.8909 278.2201 15.08849916176756,15.08849916,0.0001039,LEO
53015,STARLINK-4262,2022,95.44,260.0,+,53.22,Active,1,LEO,USA,USA,Commercial,Communications,Falcon,1 53015U 22076AF  25260.07140477 -.00001245  00000+0 -60173-4 0  9990,2 53015  53.2164 143.5249 0001371  82.4720 277.6428 15.08836431176773,15.08836431,0.0001371,LEO
53016,STARLINK-4283,2022,95.44,260.0,+,53.22,Active,1,LEO,USA,USA,Commercial,Communications,Falcon,1 53016U 22076AG  25259.94996648 -.00001055  00000+0 -48235-4 0  9998,2 53016  53.2177 144.0730 0001535  86.0055 274.1113 15.08833681176757,15.08833681,0.0001535,LEO
53017,STARLINK-4281,2022,95.44,260.0,+,53.22,Active,1,LEO,USA,USA,Commercial,Communications,Falcon,1 53017U 22076AH  25260.00148001 -.00002253  00000+0 -12353-3 0  9992,2 53017  53.2152 143.8383 0001440  85.8576 274.2581 15.08832746176775,15.08832746,0.000144,LEO
53018,STARLINK-4279,2022,95.44,260.0,+,53.22,Active,1,LEO,USA,USA,Commercial,Communications,Falcon,1 53018U 22076AJ  25260.10455099 -.00000894  00000+0 -38091-4 0  9999,2 53018  53.2162 143.6337 0001527 103.3752 256.7411 15.08836072176775,15.08836072,0.0001527,LEO
53019,STARLINK-4282,2022,95.44,260.0,+,53.22,Active,1,LEO,USA,USA,Commercial,Communications,Falcon,1 53019U 22076AK  25259.99413282  .00002885  00000+0  19945-3 0  9999,2 53019  53.2172 143.8707 0001599  84.4161 275.7013 15.08807263176760,15.08807263,0.0001599,LEO
53020,STARLINK-4287,2022,95.44,260.0,+,53.22,Active,1,LEO,USA,USA,Commercial,Communications,Falcon,1 53020U 22076AL  25260.07508968 -.00000455  00000+0 -10482-4 0  9999,2 53020  53.2175 143.5084 0001796  89.8634 270.2564 15.08832815176776,15.08832815,0.0001796,LEO
53022,STARLINK-4216,2022,95.44,260.0,+,53.22,Active,1,LEO,USA,USA,Commercial,Communications,Falcon,1 53022U 22076AN  25259.99780883 -.00001017  00000+0 -45805-4 0  9990,2 53022  53.2177 143.8556 0001478  89.3065 270.8096 15.08831578176767,15.08831578,0.0001478,LEO
53023,STARLINK-4284,2022,95.44,260.0,+,53.22,Active,1,LEO,USA,USA,Commercial,Communications,Falcon,1 53023U 22076AP  25260.04565503  .00000115  00000+0  25305-4 0  9998,2 53023  53.2161 143.6284 0001380  90.5851 269.5300 15.08835477176772,15.08835477,0.000138,LEO
53024,STARLINK-4289,2022,95.44,260.0,+,53.22,Active,1,LEO,USA,USA,Commercial,Communications,Falcon,1 53024U 22076AQ  25260.11556642 -.00000884  00000+0 -37487-4 0  9990,2 53024  53.2180 143.3263 0001448  99.2964 260.8192 15.08832019176787,15.08832019,0.0001448,LEO
53025,STARLINK-4218,2022,95.44,260.0,+,53.22,Active,1,LEO,USA,USA,Commercial,Communications,Falcon,1 53025U 22076AR  25260.10820596  .00001117  00000+0  88287-4 0  9994,2 53025  53.2167 143.3572 0001469  95.6003 264.5157 15.08825048176789,15.08825048,0.0001469,LEO
53026,STARLINK-4119,2022,95.44,260.0,+,53.22,Active,1,LEO,USA,USA,Commercial,Communications,Falcon,1 53026U 22076AS  25260.11282966 -.00000950  00000+0 -41608-4 0  9991,2 53026  53.2173 143.2328 0001530 106.8034 253.3126 15.08830485176786,15.08830485,0.000153,LEO
53027,STARLINK-4158,2022,95.44,260.0,+,53.22,Active,1,LEO,USA,USA,Commercial,Communications,Falcon,1 53027U 22076AT  25259.89844708 -.00001696  00000+0 -88523-4 0  9998,2 53027  53.2156 144.3002 0001432  95.0272 265.0884 15.08823385176752,15.08823385,0.0001432,LEO
53029,STARLINK-4143,2022,95.44,260.0,+,53.22,Active,1,LEO,USA,USA,Commercial,Communications,Falcon,1 53029U 22076AV  25260.08336236 -.00000881  00000+0 -37303-4 0  9990,2 53029  53.2159 133.4700 0001251  85.9006 274.2129 15.08835421176919,15.08835421,0.0001251,LEO
53030,STARLINK-4160,2022,95.44,260.0,+,53.22,Active,1,LEO,USA,USA,Commercial,Communications,Falcon,1 53030U 22076AW  25259.99046600 -.00003125  00000+0 -17838-3 0  9997,2 53030  53.2151 144.0806 0001238  94.5376 265.5758 15.08827606176769,15.08827606,0.0001238,LEO
53031,STARLINK-4137,2022,95.44,260.0,+,53.22,Active,1,LEO,USA,USA,Commercial,Communications,Falcon,1 53031U 22076AX  25260.07232397  .00000019  00000+0  19308-4 0  9991,2 53031  53.2162 133.5200 0001303  88.8495 271.2646 15.08828582176915,15.08828582,0.0001303,LEO
53032,STARLINK-4115,2022,95.44,260.0,+,53.22,Active,1,LEO,USA,USA,Commercial,Communications,Falcon,1 53032U 22076AY  25260.10084565 -.00000711  00000+0 -26584-4 0  9993,2 53032  53.2161 143.3921 0001439 104.4044 255.7108 15.08835750176789,15.0883575,0.0001439,LEO
53033,STARLINK-4167,2022,95.44,260.0,+,53.22,Active,1,LEO,USA,USA,Commercial,Communications,Falcon,1 53033U 22076AZ  25259.87728392 -.00000569  00000+0 -17689-4 0  9996,2 53033  53.2168 134.3951 0001396  93.3268 266.7884 15.08830802176883,15.08830802,0.0001396,LEO
53034,STARLINK-4151,2022,95.44,260.0,+,53.22,Active,1,LEO,USA,USA,Commercial,Communications,Falcon,1 53034U 22076BA  25260.01808531 -.00002591  00000+0 -14480-3 0  9991,2 53034  53.2152 133.8121 0001333  88.9713 271.1432 15.08828209176906,15.08828209,0.0001333,LEO
53035,STARLINK-4157,2022,95.44,260.0,+,53.22,Active,1,LEO,USA,USA,Commercial,Communications,Falcon,1 53035U 22076BB  25260.06864085 -.00000507  00000+0 -13746-4 0  9993,2 53035  53.2166 133.5384 0001326  88.8816 271.2328 15.08834833176911,15.08834833,0.0001326,LEO
53036,STARLINK-4155,2022,95.44,260.0,+,53.22,Active,1,LEO,USA,USA,Commercial,Communications,Falcon,1 53036U 22076BC  25259.93248653 -.00001085  00000+0 -50059-4 0  9995,2 53036  53.2178 134.1482 0002301  95.8440 264.2814 15.08830475176893,15.08830475,0.0002301,LEO
53037,STARLINK-4153,2022,95.44,260.0,+,53.22,Active,1,LEO,USA,USA,Commercial,Communications,Falcon,1 53037U 22076BD  25259.92880349 -.00000462  00000+0 -10908-4 0  9996,2 53037  53.2185 134.1651 0001605 100.0974 260.0200 15.08833413176895,15.08833413,0.0001605,LEO
53038,STARLINK-4156,2022,95.44,260.0,+,53.22,Active,1,LEO,USA,USA,Commercial,Communications,Falcon,1 53038U 22076BE  25259.92512321 -.00000717  00000+0 -26930-4 0  9994,2 53038  53.2176 134.1808 0001658  99.6499 260.4681 15.08833056176893,15.08833056,0.0001658,LEO
53043,STARLINK-4362,2022,95.92,260.0,+,97.6,Active,1,LEO,USA,USA,Commercial,Communications,Falcon,1 53043U 22077A   25260.01338582 -.00000333  00000+0 -21353-4 0  9996,2 53043  97.6026  80.1789 0001801 134.0563 226.0810 15.01260595174861,15.01260595,0.0001801,LEO
53044,STARLINK-4349,2022,95.92,260.0,+,97.6,Active,1,LEO,USA,USA,Commercial,Communications,Falcon,1 53044U 22077B   25260.00968394  .00000421  00000+0  37329-4 0  9992,2 53044  97.6028  80.1743 0002965 166.6590 193.4713 15.01263523174860,15.01263523,0.0002965,LEO
53045,STARLINK-4350,2022,95.92,260.0,+,97.6,Active,1,LEO,USA,USA,Commercial,Communications,Falcon,1 53045U 22077C   25260.01523898 -.00000756  00000+0 -54340-4 0  9995,2 53045  97.6029  80.1655 0001290 159.4106 200.7170 15.01259407174862,15.01259407,0.000129,LEO
53046,STARLINK-4331,2022,95.92,260.0,+,97.6,Active,1,LEO,USA,USA,Commercial,Communications,Falcon,1 53046U 22077D   25260.25009259 -.00007335  00000+0 -56705-3 0  9998,2 53046  97.6027  80.3985 0001480 160.4109  36.8814 15.01263312  5827,15.01263312,0.000148,LEO
53047,STARLINK-4352,2022,95.92,260.0,+,97.6,Active,1,LEO,USA,USA,Commercial,Communications,Falcon,1 53047U 22077E   25259.99326632  .00000037  00000+0  73997-5 0  9999,2 53047  97.6041  80.1889 0001468  79.9822 280.1568 15.01263173174863,15.01263173,0.0001468,LEO
53048,STARLINK-4355,2022,95.92,260.0,+,97.6,Active,1,LEO,USA,USA,Commercial,Communications,Falcon,1 53048U 22077F   25260.00622732 -.00000628  00000+0 -44346-4 0  9997,2 53048  97.6026  80.1703 0002153 149.9200 210.2149 15.01260234174855,15.01260234,0.0002153,LEO
53049,STARLINK-4345,2022,95.92,260.0,+,97.6,Active,1,LEO,USA,USA,Commercial,Communications,Falcon,1 53049U 22077G   25259.99857348 -.00000848  00000+0 -61502-4 0  9994,2 53049  97.6043  80.1679 0000795 119.0009 241.1295 15.01262648174858,15.01262648,7.95e-05,LEO
53050,STARLINK-4343,2022,95.92,260.0,+,97.6,Active,1,LEO,USA,USA,Commercial,Communications,Falcon,1 53050U 22077H   25260.00413188 -.00000340  00000+0 -21916-4 0  9992,2 53050  97.6035  80.1682 0002275 141.2760 218.8628 15.01259891174858,15.01259891,0.0002275,LEO
53051,STARLINK-4336,2022,95.92,260.0,+,97.6,Active,1,LEO,USA,USA,Commercial,Communications,Falcon,1 53051U 22077J   25260.00598315  .00002085  00000+0  16691-3 0  9998,2 53051  97.6037  80.1521 0001754 164.9340 195.1936 15.01239227174850,15.01239227,0.0001754,LEO
53052,STARLINK-4341,2022,95.92,260.0,+,97.6,Active,1,LEO,USA,USA,Commercial,Communications,Falcon,1 53052U 22077K   25260.00228070 -.00000396  00000+0 -26321-4 0  9994,2 53052  97.6041  80.1659 0002344 134.5882 225.5534 15.01260293174857,15.01260293,0.0002344,LEO
53053,STARLINK-4337,2022,95.92,260.0,+,97.6,Active,1,LEO,USA,USA,Commercial,Communications,Falcon,1 53053U 22077L   25259.99487246  .00000893  00000+0  74079-4 0  9996,2 53053  97.6051  80.1596 0000928  89.3721 270.7610 15.01260882174855,15.01260882,9.28e-05,LEO
53054,STARLINK-4339,2022,95.92,260.0,+,97.61,Active,1,LEO,USA,USA,Commercial,Communications,Falcon,1 53054U 22077M   25260.00042915 -.00000084  00000+0 -20316-5 0  9991,2 53054  97.6050  80.1647 0002103 122.2303 237.9125 15.01260451174850,15.01260451,0.0002103,LEO
53055,STARLINK-4338,2022,95.92,260.0,+,97.6,Active,1,LEO,USA,USA,Commercial,Communications,Falcon,1 53055U 22077N   25259.99302015  .00000908  00000+0  75179-4 0  9997,2 53055  97.6046  80.1588 0000946  91.9896 268.1437 15.01262043174853,15.01262043,9.46e-05,LEO
